#cP2016  7 12  0  0  0.00000000      96 ORBIT IGb08 HLM  IGS
## 1905 172800.00000000   900.00000000 57581 0.0000000000000
+   32   G01G02G03G04G05G06G07G08G09G10G11G12G13G14G15G16G17
+        G18G19G20G21G22G23G24G25G26G27G28G29G30G31G32  0  0
+          0  0  0  0  0  0  0  0  0  0  0  0  0  0  0  0  0
+          0  0  0  0  0  0  0  0  0  0  0  0  0  0  0  0  0
+          0  0  0  0  0  0  0  0  0  0  0  0  0  0  0  0  0
++         2  2  1  0  2  2  2  2  1  1  2  2  2  2  2  2  2
++         2  2  2  2  2  2  2  2  2  2  2  2  2  2  2  0  0
++         0  0  0  0  0  0  0  0  0  0  0  0  0  0  0  0  0
++         0  0  0  0  0  0  0  0  0  0  0  0  0  0  0  0  0
++         0  0  0  0  0  0  0  0  0  0  0  0  0  0  0  0  0
%c G  cc GPS ccc cccc cccc cccc cccc ccccc ccccc ccccc ccccc
%c cc cc ccc ccc cccc cccc cccc cccc ccccc ccccc ccccc ccccc
%f  1.2500000  1.025000000  0.00000000000  0.000000000000000
%f  0.0000000  0.000000000  0.00000000000  0.000000000000000
%i    0    0    0    0      0      0      0      0         0
%i    0    0    0    0      0      0      0      0         0
/* FINAL ORBIT COMBINATION FROM WEIGHTED AVERAGE OF:        
/* cod emr esa gfz grg jpl mit ngs sio                      
/* REFERENCED TO IGS TIME (IGST) AND TO WEIGHTED MEAN POLE: 
/* PCV:IGS08_1904 OL/AL:FES2004  NONE     Y  ORB:CMB CLK:CMB
*  2016  7 12 12  0  0.00000000
PG01 -13514.297458 -13689.297914 -18504.157063     26.655925  6  5  3  94       
PG02  -9440.352178  14628.931670  20403.572028    577.255594  5  5  5 106       
PG03 -13659.656267 -22596.052524   2896.762305    -72.373581  6  4  3 101       
PG04  12170.989702  -8323.029714  21863.351554 999999.999999
PG05    204.542544  22388.034711  14066.896099   -106.020116  4  2  3  62       
PG06 -22673.254501   7040.726087  11924.505761    217.525765  6  4  5  91       
PG07 -25289.745524  -6353.801486   6249.294688    442.511301  7  3  3  90       
PG08   2307.619487 -22107.639426 -14461.872697    -42.458907  4  3  7  40       
PG09 -14194.933645  -6173.034470  21571.606298    165.993439  3  4  1  73       
PG10  15566.580725  -2443.650246 -21369.123586    -63.975686  5  6  2  95       
PG11  -7972.126474 -15000.554506 -20985.480378   -655.605210  2  6  7  92       
PG12  10773.427402  24403.109043     70.330762    385.093906  6  4  6  99       
PG13 -10969.571495  22618.307497  -8826.906887    -30.662064  6  4  3 109       
PG14  19192.627960 -16609.502735  -7283.426944    -24.171968  8  8  5  76       
PG15   1252.641583  21343.013174 -15661.779473   -319.057525  5  4  4 101       
PG16   1064.708601 -22012.064941  14430.211516     -5.220380  7  6  5 108       
PG17 -19489.828001  11176.017460 -13688.687768   -203.930685 10  3  7  99       
PG18  18792.546626  10423.385302 -15215.816428    535.687313  9  3  7  77       
PG19 -19316.274824  17574.649671  -6039.114281   -525.005561  9  6  5  88       
PG20  13470.122614  22850.932426    721.199368    423.803484  8  6  4 113       
PG21  26081.393231   4107.500220   4599.109650   -528.158196  8  3  6 111       
PG22  -9022.676089 -24360.090627  -4993.640716    298.655511  5  3  4  77       
PG23  -8115.728864 -14798.585771  20611.456534   -181.844438  6  2  5  76       
PG24   9772.488311  14643.556720 -19999.431069    -20.024951  5  5  1  82       
PG25  16972.503784  17257.722814  11024.244299   -207.002630  2  6  6  93       
PG26   8282.601520 -14957.653749  20308.618502   -421.171013  6  3  1  75       
PG27  11407.715621 -23428.490485  -4677.380235    113.818807  5  4  5  97       
PG28 -15337.096236   -922.434694 -21046.813946    536.639969  8  4  5  81       
PG29  11384.149679   9554.585556  22015.106072    655.583935  8  4  4  91       
PG30 -26385.485292   -806.086348  -3431.821439    139.169824  6  5  3 109       
PG31  20627.836506  -8359.270723  14865.901771    259.267278  7  1  5  91       
PG32  19224.385328 -12713.948240 -13168.966772    -46.395976  2  3  2  99       
*  2016  7 12 12 15  0.00000000
PG01 -11341.555971 -13727.547906 -19869.133256     26.657011  6  5  4  99       
PG02 -11640.135669  14532.940478  19244.233211    577.251921  4  5  5  93       
PG03 -13512.150870 -22867.968167     51.040969    -72.376392  6  4  2  82       
PG04  13352.032904  -6066.044366  21938.102308 999999.999999
PG05   -847.237493  20975.546526  16084.745493   -106.017465  5  2  4  70       
PG06 -23888.003108   6802.554097   9428.088198    217.530559  6  5  5  77       
PG07 -24441.637038  -6506.895482   8915.842588    442.508922  7  3  2  60       
PG08   3266.870590 -23320.399360 -12199.426342    -42.460274  4  3  7  61       
PG09 -12927.612647  -8302.124448  21652.210802    165.999871  3  4  2  89       
PG10  16674.803681   -304.172391 -20665.975121    -63.982250  5  5  2  88       
PG11  -5798.497219 -15812.116662 -21103.604253   -655.606725  3  6  6  94       
PG12  10573.177898  24342.546553  -2824.653993    385.094752  5  4  6  87       
PG13 -11645.613185  23154.119060  -6127.813499    -30.664357  7  4  3  93       
PG14  18794.107852 -15638.202189  -9918.188475    -24.174057  8  8  5  48       
PG15    234.562999  22701.202021 -13621.670583   -319.059272  4  4  3  90       
PG16   1943.275969 -20437.396578  16523.373292     -5.218206  6  6  4 104       
PG17 -18658.481290   9632.079377 -15821.045082   -203.930888 10  3  7 105       
PG18  19437.231897  12028.456922 -13179.791636    535.690574  9  4  7  74       
PG19 -18974.125489  16824.337313  -8734.851808   -525.005791 10  6  6  91       
PG20  13030.966125  22831.943843   3494.552191    423.805624  8  6  4  86       
PG21  25489.914821   4393.953953   7285.807813   -528.158796  8  4  6 119       
PG22  -8328.582879 -23889.988542  -7649.726835    298.647327  4  3  4  93       
PG23  -6830.057472 -16679.438886  19566.165302   -181.845796  6     5  80       
PG24   7444.429929  14729.022842 -20902.962474    -20.025051  5  4  2  70       
PG25  17356.676518  18327.205348   8442.781068   -207.008914  2  6  6  90       
PG26   9506.235153 -12921.069109  21156.834216   -421.180092  6  3     75       
PG27  11799.071767 -23623.176328  -1821.588883    113.822712  5  4  5  91       
PG28 -16295.958311  -3208.850320 -20112.068573    536.641704  8  4  5  90       
PG29   9951.792337  11600.512902  21727.439427    655.583128  8  4  3  83       
PG30 -26590.556713  -1096.932590   -612.565704    139.172068  5  5  3 112       
PG31  22160.734477  -8120.858719  12639.499293    259.265384  8  2  5  94       
PG32  18552.019266 -11212.345364 -15320.957169    -46.405383  2  3  3  83       
*  2016  7 12 12 30  0.00000000
PG01  -9037.762616 -13885.744492 -20896.806957     26.658093  5  5  4 108       
PG02 -13700.404910  14535.119774  17761.740520    577.248320  4  5  4  88       
PG03 -13208.226214 -22873.921558  -2795.558385    -72.379181  6  4  2  98       
PG04  14647.266442  -3891.335900  21627.983529 999999.999999
PG05  -2081.800971  19437.478517  17822.218520   -106.015080  6  2  5  88       
PG06 -24821.995191   6617.738357   6769.527641    217.535345  6  5  5  67       
PG07 -23312.865006  -6708.985457  11433.318580    442.506578  6  3  2  49       
PG08   4036.686320 -24343.488594  -9726.083297    -42.461583  3  3  6  79       
PG09 -11776.169108 -10482.699259  21359.798352    166.006486  4  4  2  88       
PG10  17839.026773   1689.892307 -19607.058788    -63.988811  4  5  3  73       
PG11  -3667.412492 -16715.286517 -20876.014939   -655.607919  3  5  6 104       
PG12  10213.001914  24010.110851  -5671.734790    385.095804  4  4  6  71       
PG13 -12116.767092  23469.169116  -3324.114746    -30.666753  8  5  2  85       
PG14  18291.293785 -14400.075557 -12378.809866    -24.175548  7  7  6  67       
PG15   -619.486640  23885.167707 -11344.902843   -319.060572  3  4  2  83       
PG16   3012.424795 -18718.176274  18325.460173     -5.215813  6  5  4  91       
PG17 -17794.759260   7847.091260 -17672.706691   -203.930665 10  4  8  88       
PG18  20019.125491  13393.317062 -10912.381374    535.694087  9  4  8  93       
PG19 -18511.925850  15811.976233 -11284.600149   -525.005617 10  7  7  90       
PG20  12404.887540  22585.949227   6207.471975    423.807605  7  6  4 101       
PG21  24624.310452   4722.002730   9851.472851   -528.160558  8  4  7 122       
PG22  -7449.017115 -23208.376208 -10172.205026    298.638914  3  3  3  86       
PG23  -5700.266971 -18504.773343  18185.798193   -181.847114  6     5  84       
PG24   5040.496006  14937.165570 -21449.732519    -20.025916  5  4  3  69       
PG25  17640.552267  19117.808145   5716.905664   -207.015205  3  7  7  78       
PG26  10874.320003 -10887.564323  21640.615093   -421.189128  5  3     69       
PG27  12027.827087 -23548.926249   1065.876257    113.826629  5  4  4  91       
PG28 -17317.610160  -5320.575944 -18811.977172    536.644182  8  5  5  83       
PG29   8661.735056  13675.532341  21066.115037    655.582850  7  5  2  73       
PG30 -26491.723755  -1366.738961   2217.161547    139.174237  5  5  4 101       
PG31  23442.006980  -7965.713320  10200.702080    259.263660  8  2  4  78       
PG32  17852.110676  -9475.262146 -17208.827032    -46.414846  3  2  3  87       
EOF
